SCD 1                   
1 22490U 93009B   22251.60061375  .00000316  00000+0  37291-4 0  9993
2 22490  24.9705  63.6804 0042821 334.2006  95.3380 14.44714522561596
TECHSAT 1B (GO-32)      
1 25397U 98043D   22251.35441866  .00000039  00000+0  36721-4 0  9993
2 25397  98.8242 202.0668 0000792 169.3784 190.7411 14.23768827255228
SCD 2                   
1 25504U 98060A   22251.44902326  .00000330  00000+0  42594-4 0  9994
2 25504  24.9954 279.8236 0017091 339.8748 157.3818 14.44226435260857
LANDSAT 7               
1 25682U 99020A   22251.50668325  .00000194  00000+0  49837-4 0  9998
2 25682  97.9722 296.4156 0001227  96.4300 263.7042 14.59794803244686
DLR-TUBSAT              
1 25757U 99029B   22251.33618413  .00000059  00000+0  26297-4 0  9999
2 25757  98.4926 194.7299 0013542 222.2301 137.7852 14.51515738233308
TERRA                   
1 25994U 99068A   22251.49332473  .00000243  00000+0  63869-4 0  9992
2 25994  98.1311 321.4849 0001333  82.1421 334.0209 14.57147916208593
MAROC-TUBSAT            
1 27004U 01056D   22251.42018073 -.00000033  00000+0  14244-4 0  9997
2 27004  99.6383  31.8476 0020645  79.5246 351.5784 13.70160017 37506
AQUA                    
1 27424U 02022A   22251.51585387  .00000494  00000+0  11908-3 0  9997
2 27424  98.2511 192.6377 0001427  54.0353  81.0446 14.57374045 82289
IRS-P6 (RESOURCESAT-1)  
1 28051U 03046A   22251.47505137 -.00000298  00000+0 -89562-4 0  9997
2 28051  98.3987 320.1363 0059446 130.1086 230.5140 14.34214180982920
SHIYAN 1 (SY-1)         
1 28220U 04012A   22251.47195642  .00003553  00000+0  27396-3 0  9996
2 28220  97.9817 245.9701 0011782  56.8907 303.3446 15.02238148  2480
AURA                    
1 28376U 04026A   22251.51754795  .00000494  00000+0  11975-3 0  9995
2 28376  98.2131 193.6749 0001526  74.5569 285.5798 14.57133300965327
IRS-P5 (CARTOSAT-1)     
1 28649U 05017A   22251.14148624  .00000716  00000+0  91661-4 0  9994
2 28649  97.7117 308.8434 0000729  26.1900 333.9351 14.84252652939006
SINAH 1                 
1 28893U 05043D   22251.35726128  .00000204  00000+0  50311-4 0  9997
2 28893  98.1211  13.4291 0013857 273.2375  86.7240 14.61740350899067
EROS B                  
1 29079U 06014A   22251.30249873  .00018403  00000+0  76202-3 0  9991
2 29079  97.3809  10.9315 0011442   7.7063  22.7982 15.23917650909006
RESURS-DK 1             
1 29228U 06021A   22251.39103596  .00000860  00000+0  70349-4 0  9990
2 29228  69.9338 277.6243 0007456 284.6109  75.4225 15.03384250894845
ARIRANG-2 (KOMPSAT-2)   
1 29268U 06031A   22251.63075844  .00000483  00000+0  10321-3 0  9990
2 29268  97.9441 117.0901 0016020 111.0134 249.2785 14.62834767860056
LAPAN-TUBSAT            
1 29709U 07001A   22251.50557778  .00000393  00000+0  55545-4 0  9993
2 29709  97.9743 213.8976 0012703 352.7506   7.3512 14.82549564846818
CARTOSAT-2 (IRS-P7)     
1 29710U 07001B   22251.58867094  .00024472  00000+0  57445-3 0  9992
2 29710  97.8711   2.0216 0146142 125.3359 236.1644 15.31554107848953
HAIYANG-1B              
1 31113U 07010A   22251.30735384  .00000054  00000+0  36582-4 0  9998
2 31113  98.3168 272.7999 0013092 332.0413  28.0066 14.30331132803613
COSMO-SKYMED 1          
1 31598U 07023A   22251.57483372  .00000254  00000+0  38502-4 0  9991
2 31598  97.8904  74.0472 0001465  88.2973 271.8404 14.82156631825279
TERRASAR-X              
1 31698U 07026A   22251.45019355 -.00000773  00000+0 -33618-4 0  9999
2 31698  97.4461 257.8724 0001635  92.6207  44.6502 15.19147222844715
WORLDVIEW-1 (WV-1)      
1 32060U 07041A   22251.31444670  .00004690  00000+0  19363-3 0  9997
2 32060  97.3935   9.5730 0006134 185.9026 174.2141 15.24497170833013
YAOGAN 3                
1 32289U 07055A   22251.61407017  .00000917  00000+0  12367-3 0  9997
2 32289  97.9460 272.8509 0001106  89.2148 270.9195 14.81514432801357
COSMO-SKYMED 2          
1 32376U 07059A   22251.54107607  .00000500  00000+0  69365-4 0  9991
2 32376  97.8901  74.0142 0001396  84.4307 275.7084 14.82157576798014
RADARSAT-2              
1 32382U 07061A   22251.48182406  .00000055  00000+0  38328-4 0  9994
2 32382  98.5780 257.2139 0001164  92.0340  62.1693 14.29984793769168
CARTOSAT-2A             
1 32783U 08021A   22251.58551094  .00000242  00000+0  40068-4 0  9992
2 32783  97.9592 310.9467 0011297 257.4469 102.5477 14.78688561775305
HUANJING 1A (HJ-1A)     
1 33320U 08041A   22251.42788974  .00000286  00000+0  46455-4 0  9998
2 33320  97.6732 280.5769 0020375 325.9431  34.0473 14.77903775754645
HUANJING 1B (HJ-1B)     
1 33321U 08041B   22251.58173254  .00000724  00000+0  10669-3 0  9999
2 33321  97.6900 284.4557 0033907 342.5172  17.4883 14.77853463754663
GEOEYE 1                
1 33331U 08042A   22251.57802966  .00000277  00000+0  61135-4 0  9997
2 33331  98.1068 325.3501 0009187  21.8602 338.2992 14.64567102748539
THEOS                   
1 33396U 08049A   22251.44148753  .00000008  00000+0  24275-4 0  9994
2 33396  98.7424 318.2252 0001194  88.1352   6.1291 14.20008205722445
COSMO-SKYMED 3          
1 33412U 08054A   22251.53802274  .00000470  00000+0  52176-4 0  9998
2 33412  97.8910  75.3837 0017233 198.5035 161.5616 14.91878523750566
YAOGAN 4                
1 33446U 08061A   22251.34331184  .00000476  00000+0  73708-4 0  9999
2 33446  97.8200 188.9662 0015115 222.2879 137.7167 14.77451737741834
GOSAT (IBUKI)           
1 33492U 09002A   22251.25784602  .00000480  00000+0  93254-4 0  9996
2 33492  98.1221   3.2282 0001430  82.4138 277.7228 14.67526274729363
YAOGAN 6                
1 34839U 09021A   22251.40247461  .00005006  00000+0  17247-3 0  9993
2 34839  97.0893 227.7413 0025886   5.5579 354.5945 15.30134717743912
DEIMOS-1                
1 35681U 09041A   22251.52659277  .00000234  00000+0  44464-4 0  9996
2 35681  97.7068  98.3070 0001360  19.8845 340.2437 14.72100263703991
DUBAISAT-1              
1 35682U 09041B   22251.38974514  .00000600  00000+0  10956-3 0  9990
2 35682  97.8129  40.9989 0011704 160.6365 199.5273 14.69273050702463
OCEANSAT-2              
1 35931U 09051A   22251.51987428 -.00044767  00000+0 -16246-1 0  9991
2 35931  98.2992 343.2881 0004732 205.8271 154.2781 14.33634010686139
WORLDVIEW-2 (WV-2)      
1 35946U 09055A   22251.51374866  .00000025  00000+0  22755-4 0  9999
2 35946  98.4821 325.5955 0002165 104.3564 255.7860 14.37659843677847
SMOS                    
1 36036U 09059A   22251.07905971  .00000200  00000+0  77592-4 0  9996
2 36036  98.4445  77.4071 0001111  85.9546 274.1769 14.39779058675154
YAOGAN 7                
1 36110U 09069A   22251.56319521 -.00000464  00000+0 -60387-4 0  9992
2 36110  98.1938 112.3280 0026152 139.2022 221.1030 14.75173689686395
TANDEM-X                
1 36605U 10030A   22251.23893198 -.00001323  00000+0 -59865-4 0  9996
2 36605  97.4456 257.6638 0001386  90.0123 332.5960 15.19140022677437
CARTOSAT-2B             
1 36795U 10035A   22251.48812999  .00000473  00000+0  71604-4 0  9996
2 36795  97.9531 310.9407 0013358 341.0280  19.0433 14.78665114656334
YAOGAN 10               
1 36834U 10038A   22251.55703582  .00000378  00000+0  55246-4 0  9996
2 36834  97.9766 261.9942 0001147  85.7760 274.3587 14.81334595653080
COSMO-SKYMED 4          
1 37216U 10060A   22251.48620127 -.00000825  00000+0 -97078-4 0  9999
2 37216  97.8901  73.9586 0001442  79.0345 281.1004 14.82149255640559
RESOURCESAT-2           
1 37387U 11015A   22251.46005376  .00000072  00000+0  52619-4 0  9994
2 37387  98.6572 322.4155 0004165 176.0593 184.0628 14.21657938590959
HAIYANG-2A              
1 37781U 11043A   22251.31121064 -.00000004  00000+0  39109-4 0  9995
2 37781  99.3196 255.7325 0001141  49.7367 310.3884 13.78744957556803
RASAT                   
1 37791U 11044D   22251.55914347  .00000280  00000+0  61095-4 0  9991
2 37791  98.0958 343.2643 0020679 226.5177 133.4315 14.65064480591280
MEGHA-TROPIQUES         
1 37838U 11058A   22249.99608458  .00000555  00000+0  98680-4 0  9991
2 37838  19.9757 151.4933 0107026 101.0801 260.1663 14.30420897495338
SRMSAT                  
1 37841U 11058D   22251.31948703  .00000355  00000+0  50065-4 0  9997
2 37841  19.9717 114.0163 0011914 174.3186 343.0207 14.10769262562955
YAOGAN 13               
1 37941U 11072A   22251.53442027  .00005651  00000+0  25108-3 0  9999
2 37941  97.6373 202.8657 0003693  97.5778  13.7937 15.21941780597431
PLEIADES 1A             
1 38012U 11076F   22250.77098436 -.00000037  00000+0  19310-5 0  9993
2 38012  98.1951 324.6329 0001655 103.2234 256.9154 14.58544226571073
ZIYUAN 1-02C (ZY 1-02C) 
1 38038U 11079A   22251.52445992  .00000118  00000+0  56635-4 0  9990
2 38038  98.5825 315.7403 0007197  26.8697 333.2861 14.35331634561401
ZIYUAN 3-1 (ZY 3-1)     
1 38046U 12001A   22251.57324725  .00004862  00000+0  21992-3 0  9997
2 38046  97.3343 320.4030 0002759 107.4102 358.4178 15.21372757592240
ARIRANG-3 (KOMPSAT-3)   
1 38338U 12025B   22251.53816767  .00000280  00000+0  65296-4 0  9991
2 38338  98.1832 190.8162 0011932 111.0559 249.1922 14.61908656550110
KANOPUS-V 1             
1 38707U 12039A   22251.46866772  .00004140  00000+0  18053-3 0  9996
2 38707  97.4665 173.0230 0002027  92.2465  31.9350 15.22726416562021
EXACTVIEW-1 (ADS-1B)    
1 38709U 12039C   22251.18080331  .00000039  00000+0  37137-4 0  9994
2 38709  99.0029 319.6937 0011113 175.5137 184.6142 14.24117280526517
SPOT 6                  
1 38755U 12047A   22251.47166213  .00000655  00000+0  15079-3 0  9994
2 38755  98.2280 317.3126 0001100  94.0146 266.1186 14.58555375532253
PLEIADES 1B             
1 39019U 12068A   22251.42242970  .00000147  00000+0  41457-4 0  9997
2 39019  98.1907 325.2184 0001373  82.5461 277.5899 14.58566193520027
GOKTURK 2               
1 39030U 12073A   22251.52149261  .00000240  00000+0  44866-4 0  9997
2 39030  97.8427 127.7760 0002384  81.0214 279.1272 14.72911249521588
LANDSAT 8               
1 39084U 13008A   22251.44629795  .00000227  00000+0  60516-4 0  9996
2 39084  98.2165 320.6907 0001399  95.0556 265.0802 14.57102295497263
